STARLINK-31278          
1 59163U 24044M   26068.53082861  .00001143  00000+0  51076-4 0  9994
2 59163  43.0038 107.7183 0001994 287.1664  72.8969 15.27566797113548
FLOCK 4G-8              
1 62613U 25009E   26068.72381419  .00013559  00000+0  50438-3 0  9996
2 62613  97.4045 151.2834 0003050 315.2538  44.8455 15.27623414 63721
